GSAT0207 (GALILEO 15)   
1 41859U 16069A   26086.79683287  .00000039  00000+0  00000+0 0  9991
2 41859  55.4460 103.3365 0005689 312.3228  47.6802  1.70474198 58015
